ALOS (DAICHI)           
1 28931U 06002A   25351.73419158  .00001110  00000+0  19545-3 0  9994
2 28931  98.1098 303.1864 0001361 113.5739 246.5610 14.69501788 61443
H-2A R/B                
1 28932U 06002B   25360.92237477  .00011882  00000+0  61888-3 0  9992
2 28932  98.2327 136.8326 0054861 128.4870 232.1299 15.14856413 83412
RESURS-DK 1             
1 29228U 06021A   25361.18442419  .00003398  00000+0  20217-3 0  9999
2 29228  69.9336  64.5060 0006978 246.2151 113.8283 15.12243313 76568
CZ-4B R/B               
1 29507U 06046C   25361.09278889  .00005618  00000+0  29159-3 0  9995
2 29507  97.5713  41.1918 0034520 156.6964 203.5843 15.16015472 49046
CZ-2C R/B               
1 31114U 07010B   25361.16146983  .00000182  00000+0  10217-3 0  9997
2 31114  98.3974 113.0865 0059699 144.3004 216.2188 14.20215740969424
COSMO-SKYMED 1          
1 31598U 07023A   25361.17046084  .00003957  00000+0  35923-3 0  9993
2 31598  97.8838 186.6651 0001106  77.7312 282.4032 14.95872195  4061
COSMOS 2428             
1 31792U 07029A   25361.18110152  .00000258  00000+0  16409-3 0  9993
2 31792  70.9370 355.5581 0004495   3.4607 356.6544 14.12896144953857
SL-16 R/B               
1 31793U 07029B   25361.17085281  .00000295  00000+0  17776-3 0  9996
2 31793  70.9767 324.8216 0001895 266.8766 179.5026 14.14820139955115
KORONAS-FOTON           
1 33504U 09003A   25361.03703113  .00009700  00000+0  23010-3 0  9996
2 33504  82.4311 351.2870 0013207  64.0975 296.1630 15.41466450934544
CZ-2C R/B               
1 37731U 11030B   25361.11100439  .00001609  00000+0  21019-3 0  9993
2 37731  97.8434 314.9013 0051644 225.5588 144.6299 14.80945884779351
H-2A R/B                
1 38341U 12025E   25361.16859215  .00004451  00000+0  41003-3 0  9997
2 38341  98.4618 317.5136 0044700 187.8633 172.1889 14.94538330737388
SHIJIAN-16 (SJ-16)      
1 39358U 13057A   25361.22011219 -.00000140  00000+0 -10825-4 0  9995
2 39358  74.9741 322.2546 0017954 286.3106  73.6107 14.92026477660691
