CCSDS_OMM_VERS = 2.0
CREATION_DATE  = 
ORIGINATOR     = 

OBJECT_NAME    = ALOS (DAICHI)
OBJECT_ID      = 2006-002A
CENTER_NAME    = EARTH
REF_FRAME      = TEME
TIME_SYSTEM    = UTC
MEAN_ELEMENT_THEORY = SGP/SGP4

EPOCH          = 2025-12-17T17:37:14.152512
MEAN_MOTION    = 14.69501788
ECCENTRICITY   = .00013612
INCLINATION    = 98.1098
RA_OF_ASC_NODE = 303.1864
ARG_OF_PERICENTER = 113.5739
MEAN_ANOMALY   = 246.5610

EPHEMERIS_TYPE = 0
CLASSIFICATION_TYPE = U
NORAD_CAT_ID   = 28931
ELEMENT_SET_NO = 999
REV_AT_EPOCH   = 6144
BSTAR          = .19545051E-3
MEAN_MOTION_DOT = .111E-4
MEAN_MOTION_DDOT = 0

CCSDS_OMM_VERS = 2.0
CREATION_DATE  = 
ORIGINATOR     = 

OBJECT_NAME    = H-2A R/B
OBJECT_ID      = 2006-002B
CENTER_NAME    = EARTH
REF_FRAME      = TEME
TIME_SYSTEM    = UTC
MEAN_ELEMENT_THEORY = SGP/SGP4

EPOCH          = 2025-12-26T22:08:13.180128
MEAN_MOTION    = 15.14856413
ECCENTRICITY   = .0054861
INCLINATION    = 98.2327
RA_OF_ASC_NODE = 136.8326
ARG_OF_PERICENTER = 128.4870
MEAN_ANOMALY   = 232.1299

EPHEMERIS_TYPE = 0
CLASSIFICATION_TYPE = U
NORAD_CAT_ID   = 28932
ELEMENT_SET_NO = 999
REV_AT_EPOCH   = 8341
BSTAR          = .61888E-3
MEAN_MOTION_DOT = .11882E-3
MEAN_MOTION_DDOT = 0

CCSDS_OMM_VERS = 2.0
CREATION_DATE  = 
ORIGINATOR     = 

OBJECT_NAME    = RESURS-DK 1
OBJECT_ID      = 2006-021A
CENTER_NAME    = EARTH
REF_FRAME      = TEME
TIME_SYSTEM    = UTC
MEAN_ELEMENT_THEORY = SGP/SGP4

EPOCH          = 2025-12-27T04:25:34.250016
MEAN_MOTION    = 15.12243313
ECCENTRICITY   = .0006978
INCLINATION    = 69.9336
RA_OF_ASC_NODE = 64.5060
ARG_OF_PERICENTER = 246.2151
MEAN_ANOMALY   = 113.8283

EPHEMERIS_TYPE = 0
CLASSIFICATION_TYPE = U
NORAD_CAT_ID   = 29228
ELEMENT_SET_NO = 999
REV_AT_EPOCH   = 7656
BSTAR          = .20217E-3
MEAN_MOTION_DOT = .3398E-4
MEAN_MOTION_DDOT = 0

CCSDS_OMM_VERS = 2.0
CREATION_DATE  = 
ORIGINATOR     = 

OBJECT_NAME    = CZ-4B R/B
OBJECT_ID      = 2006-046C
CENTER_NAME    = EARTH
REF_FRAME      = TEME
TIME_SYSTEM    = UTC
MEAN_ELEMENT_THEORY = SGP/SGP4

EPOCH          = 2025-12-27T02:13:36.960096
MEAN_MOTION    = 15.16015472
ECCENTRICITY   = .003452
INCLINATION    = 97.5713
RA_OF_ASC_NODE = 41.1918
ARG_OF_PERICENTER = 156.6964
MEAN_ANOMALY   = 203.5843

EPHEMERIS_TYPE = 0
CLASSIFICATION_TYPE = U
NORAD_CAT_ID   = 29507
ELEMENT_SET_NO = 999
REV_AT_EPOCH   = 4904
BSTAR          = .29159E-3
MEAN_MOTION_DOT = .5618E-4
MEAN_MOTION_DDOT = 0

CCSDS_OMM_VERS = 2.0
CREATION_DATE  = 
ORIGINATOR     = 

OBJECT_NAME    = CZ-2C R/B
OBJECT_ID      = 2007-010B
CENTER_NAME    = EARTH
REF_FRAME      = TEME
TIME_SYSTEM    = UTC
MEAN_ELEMENT_THEORY = SGP/SGP4

EPOCH          = 2025-12-27T03:52:30.993312
MEAN_MOTION    = 14.20215740
ECCENTRICITY   = .0059699
INCLINATION    = 98.3974
RA_OF_ASC_NODE = 113.0865
ARG_OF_PERICENTER = 144.3004
MEAN_ANOMALY   = 216.2188

EPHEMERIS_TYPE = 0
CLASSIFICATION_TYPE = U
NORAD_CAT_ID   = 31114
ELEMENT_SET_NO = 999
REV_AT_EPOCH   = 96942
BSTAR          = .10217E-3
MEAN_MOTION_DOT = .182E-5
MEAN_MOTION_DDOT = 0

CCSDS_OMM_VERS = 2.0
CREATION_DATE  = 
ORIGINATOR     = 

OBJECT_NAME    = COSMO-SKYMED 1
OBJECT_ID      = 2007-023A
CENTER_NAME    = EARTH
REF_FRAME      = TEME
TIME_SYSTEM    = UTC
MEAN_ELEMENT_THEORY = SGP/SGP4

EPOCH          = 2025-12-27T04:05:27.816576
MEAN_MOTION    = 14.95872195
ECCENTRICITY   = .0001106
INCLINATION    = 97.8838
RA_OF_ASC_NODE = 186.6651
ARG_OF_PERICENTER = 77.7312
MEAN_ANOMALY   = 282.4032

EPHEMERIS_TYPE = 0
CLASSIFICATION_TYPE = U
NORAD_CAT_ID   = 31598
ELEMENT_SET_NO = 999
REV_AT_EPOCH   = 406
BSTAR          = .35923E-3
MEAN_MOTION_DOT = .3957E-4
MEAN_MOTION_DDOT = 0

CCSDS_OMM_VERS = 2.0
CREATION_DATE  = 
ORIGINATOR     = 

OBJECT_NAME    = COSMOS 2428
OBJECT_ID      = 2007-029A
CENTER_NAME    = EARTH
REF_FRAME      = TEME
TIME_SYSTEM    = UTC
MEAN_ELEMENT_THEORY = SGP/SGP4

EPOCH          = 2025-12-27T04:20:47.171328
MEAN_MOTION    = 14.12896144
ECCENTRICITY   = .0004495
INCLINATION    = 70.9370
RA_OF_ASC_NODE = 355.5581
ARG_OF_PERICENTER = 3.4607
MEAN_ANOMALY   = 356.6544

EPHEMERIS_TYPE = 0
CLASSIFICATION_TYPE = U
NORAD_CAT_ID   = 31792
ELEMENT_SET_NO = 999
REV_AT_EPOCH   = 95385
BSTAR          = .16409E-3
MEAN_MOTION_DOT = .258E-5
MEAN_MOTION_DDOT = 0

CCSDS_OMM_VERS = 2.0
CREATION_DATE  = 
ORIGINATOR     = 

OBJECT_NAME    = SL-16 R/B
OBJECT_ID      = 2007-029B
CENTER_NAME    = EARTH
REF_FRAME      = TEME
TIME_SYSTEM    = UTC
MEAN_ELEMENT_THEORY = SGP/SGP4

EPOCH          = 2025-12-27T04:06:01.682784
MEAN_MOTION    = 14.14820139
ECCENTRICITY   = .0001895
INCLINATION    = 70.9767
RA_OF_ASC_NODE = 324.8216
ARG_OF_PERICENTER = 266.8766
MEAN_ANOMALY   = 179.5026

EPHEMERIS_TYPE = 0
CLASSIFICATION_TYPE = U
NORAD_CAT_ID   = 31793
ELEMENT_SET_NO = 999
REV_AT_EPOCH   = 95511
BSTAR          = .17776E-3
MEAN_MOTION_DOT = .295E-5
MEAN_MOTION_DDOT = 0

CCSDS_OMM_VERS = 2.0
CREATION_DATE  = 
ORIGINATOR     = 

OBJECT_NAME    = KORONAS-FOTON
OBJECT_ID      = 2009-003A
CENTER_NAME    = EARTH
REF_FRAME      = TEME
TIME_SYSTEM    = UTC
MEAN_ELEMENT_THEORY = SGP/SGP4

EPOCH          = 2025-12-27T00:53:19.489632
MEAN_MOTION    = 15.41466450
ECCENTRICITY   = .0013207
INCLINATION    = 82.4311
RA_OF_ASC_NODE = 351.2870
ARG_OF_PERICENTER = 64.0975
MEAN_ANOMALY   = 296.1630

EPHEMERIS_TYPE = 0
CLASSIFICATION_TYPE = U
NORAD_CAT_ID   = 33504
ELEMENT_SET_NO = 999
REV_AT_EPOCH   = 93454
BSTAR          = .2301E-3
MEAN_MOTION_DOT = .97E-4
MEAN_MOTION_DDOT = 0

CCSDS_OMM_VERS = 2.0
CREATION_DATE  = 
ORIGINATOR     = 

OBJECT_NAME    = CZ-2C R/B
OBJECT_ID      = 2011-030B
CENTER_NAME    = EARTH
REF_FRAME      = TEME
TIME_SYSTEM    = UTC
MEAN_ELEMENT_THEORY = SGP/SGP4

EPOCH          = 2025-12-27T02:39:50.779296
MEAN_MOTION    = 14.80945884
ECCENTRICITY   = .0051644
INCLINATION    = 97.8434
RA_OF_ASC_NODE = 314.9013
ARG_OF_PERICENTER = 225.5588
MEAN_ANOMALY   = 144.6299

EPHEMERIS_TYPE = 0
CLASSIFICATION_TYPE = U
NORAD_CAT_ID   = 37731
ELEMENT_SET_NO = 999
REV_AT_EPOCH   = 77935
BSTAR          = .21019E-3
MEAN_MOTION_DOT = .1609E-4
MEAN_MOTION_DDOT = 0

CCSDS_OMM_VERS = 2.0
CREATION_DATE  = 
ORIGINATOR     = 

OBJECT_NAME    = H-2A R/B
OBJECT_ID      = 2012-025E
CENTER_NAME    = EARTH
REF_FRAME      = TEME
TIME_SYSTEM    = UTC
MEAN_ELEMENT_THEORY = SGP/SGP4

EPOCH          = 2025-12-27T04:02:46.361760
MEAN_MOTION    = 14.94538330
ECCENTRICITY   = .00447
INCLINATION    = 98.4618
RA_OF_ASC_NODE = 317.5136
ARG_OF_PERICENTER = 187.8633
MEAN_ANOMALY   = 172.1889

EPHEMERIS_TYPE = 0
CLASSIFICATION_TYPE = U
NORAD_CAT_ID   = 38341
ELEMENT_SET_NO = 999
REV_AT_EPOCH   = 73738
BSTAR          = .41003E-3
MEAN_MOTION_DOT = .4451E-4
MEAN_MOTION_DDOT = 0

CCSDS_OMM_VERS = 2.0
CREATION_DATE  = 
ORIGINATOR     = 

OBJECT_NAME    = SHIJIAN-16 (SJ-16)
OBJECT_ID      = 2013-057A
CENTER_NAME    = EARTH
REF_FRAME      = TEME
TIME_SYSTEM    = UTC
MEAN_ELEMENT_THEORY = SGP/SGP4

EPOCH          = 2025-12-27T05:16:57.693216
MEAN_MOTION    = 14.92026477
ECCENTRICITY   = .0017954
INCLINATION    = 74.9741
RA_OF_ASC_NODE = 322.2546
ARG_OF_PERICENTER = 286.3106
MEAN_ANOMALY   = 73.6107

EPHEMERIS_TYPE = 0
CLASSIFICATION_TYPE = U
NORAD_CAT_ID   = 39358
ELEMENT_SET_NO = 999
REV_AT_EPOCH   = 66069
BSTAR          = -.10825E-4
MEAN_MOTION_DOT = -.14E-5
MEAN_MOTION_DDOT = 0

